NORAD_CAT_ID,OBJECT_NAME,OBJECT_TYPE,EPOCH,MEAN_MOTION,ECCENTRICITY,INCLINATION,RA_OF_ASC_NODE,ARG_OF_PERICENTER,MEAN_ANOMALY,BSTAR,MEAN_MOTION_DOT,MEAN_MOTION_DDOT,TLE_LINE0,TLE_LINE1,TLE_LINE2,SEMIMAJOR_AXIS,PERIOD,APOGEE,PERIGEE,DECAYED
53538.0,STARLINK-4118,PAYLOAD,2022-08-24 14:00:01,15.89753677,0.0039504,53.2174,131.4019,56.2248,40.1408,-0.0039693,-0.01287862,0.0004742,0 STARLINK-4118,1 53538U 22101M   22236.58334491 -.01287862  47420-3 -39693-2 0  9990,2 53538  53.2174 131.4019 0039504  56.2248  40.1408 15.89753677   774,6681.11,90.58,329.36800000000005,276.582,0.0
53538.0,STARLINK-4118,PAYLOAD,2022-08-25 04:00:00,15.88261146,0.0033223,53.2173,128.4497,57.7255,137.5018,-0.0045592,-0.01341402,0.00050367,0 STARLINK-4118,1 53538U 22101M   22237.16667824 -.01341402  50367-3 -45592-2 0  9994,2 53538  53.2173 128.4497 0033223  57.7255 137.5018 15.88261146   867,6685.295,90.665,329.37,284.949,0.0
53538.0,STARLINK-4118,PAYLOAD,2022-08-25 12:00:00,15.8740441,0.0030072,53.2175,126.762,58.4858,243.2328,-0.0048933,-0.01366529,0.00051691,0 STARLINK-4118,1 53538U 22101M   22237.50001157 -.01366529  51691-3 -48933-2 0  9993,2 53538  53.2175 126.7620 0030072  58.4858 243.2328 15.87404410   911,6687.7,90.714,329.676,289.454,0.0
53538.0,STARLINK-4118,PAYLOAD,2022-08-25 14:00:01,15.87154481,0.0029274,53.2174,126.3403,58.0432,0.1477,-0.0047161,-0.01298766,0.00047007,0 STARLINK-4118,1 53538U 22101M   22237.58334491 -.01298766  47007-3 -47161-2 0  9996,2 53538  53.2174 126.3403 0029274  58.0432   0.1477 15.87154481  1300,6688.401999999999,90.728,329.847,290.687,0.0
53538.0,STARLINK-4118,PAYLOAD,2022-08-25 18:00:00,15.86756758,0.0027734,53.2175,125.4993,58.2912,232.6111,-0.0051043999999999,-0.01372123,0.00051771,0 STARLINK-4118,1 53538U 22101M   22237.75001157 -.01372123  51771-3 -51044-2 0  9993,2 53538  53.2175 125.4993 0027734  58.2912 232.6111 15.86756758   950,6689.52,90.751,329.9369999999999,292.832,0.0
53538.0,STARLINK-4118,PAYLOAD,2022-08-25 22:00:00,15.86299959,0.0026241999999999,53.2176,124.6592,57.4312,105.9432,-0.0050583,-0.01325333,0.00048397,0 STARLINK-4118,1 53538U 22101M   22237.91667824 -.01325333  48397-3 -50583-2 0  9998,2 53538  53.2176 124.6592 0026242  57.4312 105.9432 15.86299959  1308,6690.804,90.777,330.227,295.111,0.0
53538.0,STARLINK-4118,PAYLOAD,2022-08-26 12:00:00,15.84804062,0.0020609,53.2174,121.718,59.4037,195.5353,-0.0057033,-0.01211165,0.0,0 STARLINK-4118,1 53538U 22101M   22238.50001157 -.01211165  00000-0 -57033-2 0  9995,2 53538  53.2174 121.7180 0020609  59.4037 195.5353 15.84804062  1070,6695.014,90.863,330.676,303.081,0.0
53538.0,STARLINK-4118,PAYLOAD,2022-08-26 14:00:01,15.84564143,0.0019667,53.2172,121.2981,58.6918,311.9999,-0.0055847,-0.01174703,0.0,0 STARLINK-4118,1 53538U 22101M   22238.58335648 -.01174703  00000-0 -55847-2 0  9995,2 53538  53.2172 121.2981 0019667  58.6918 311.9999 15.84564143  1302,6695.689,90.877,330.723,304.386,0.0
53538.0,STARLINK-4118,PAYLOAD,2022-08-26 22:00:00,15.83686371,0.0016559,53.2172,119.6237,57.2536,55.434,-0.005748,-0.01154303,0.0,0 STARLINK-4118,1 53538U 22101M   22238.91667824 -.01154303  00000-0 -57480-2 0  9995,2 53538  53.2172 119.6237 0016559  57.2536  55.4340 15.83686371  1302,6698.163000000001,90.927,331.12,308.937,0.0
53538.0,STARLINK-4118,PAYLOAD,2022-08-27 14:00:01,15.81978139,0.0010349,53.2175,116.2753,54.432,259.2392,-0.0065598,-0.01219584,0.0,0 STARLINK-4118,1 53538U 22101M   22239.58334491 -.01219584  00000-0 -65598-2 0  9992,2 53538  53.2175 116.2753 0010349  54.4320 259.2392 15.81978139  1307,6702.984,91.025,331.786,317.9120000000001,0.0
53538.0,STARLINK-4118,PAYLOAD,2022-08-27 20:00:01,15.8132904,0.0007622,53.2176,115.0242,48.5512,249.4149,-0.0067948999999999,-0.012214,0.0,0 STARLINK-4118,1 53538U 22101M   22239.83334491 -.01221400  00000-0 -67949-2 0  9992,2 53538  53.2176 115.0242 0007622  48.5512 249.4149 15.81329040  1284,6704.818,91.063,331.7940000000001,321.573,0.0
53538.0,STARLINK-4118,PAYLOAD,2022-08-27 22:00:00,15.81087261,0.0006928,53.2176,114.6074,44.2791,8.3296,-0.0066007,-0.01177586,0.0,0 STARLINK-4118,1 53538U 22101M   22239.91667824 -.01177586  00000-0 -66007-2 0  9999,2 53538  53.2176 114.6074 0006928  44.2791   8.3296 15.81087261  1306,6705.502,91.077,332.01199999999994,322.721,0.0
53538.0,STARLINK-4118,PAYLOAD,2022-08-28 14:00:01,15.79367584,0.0003022,53.2172,111.2718,15.6053,231.7321,-0.0073381,-0.01202222,0.0,0 STARLINK-4118,1 53538U 22101M   22240.58334491 -.01202222  00000-0 -73381-2 0  9994,2 53538  53.2172 111.2718 0003022  15.6053 231.7321 15.79367584  1302,6710.368,91.176,334.261,330.205,0.0
53538.0,STARLINK-4118,PAYLOAD,2022-08-28 20:00:01,15.7871267,0.0002697,53.2174,110.0256,12.9556,216.3314,-0.0075117,-0.0119497999999999,0.0,0 STARLINK-4118,1 53538U 22101M   22240.83334491 -.01194980  00000-0 -75117-2 0  9992,2 53538  53.2174 110.0256 0002697  12.9556 216.3314 15.78712670  1448,6712.224,91.214,335.899,332.279,0.0
53538.0,STARLINK-4118,PAYLOAD,2022-08-28 22:00:00,15.78497695,0.0002748999999999,53.2173,109.6103,9.8025,333.3364,-0.0076113999999999,-0.01198612,0.0,0 STARLINK-4118,1 53538U 22101M   22240.91667824 -.01198612  00000-0 -76114-2 0  9994,2 53538  53.2173 109.6103 0002749   9.8025 333.3364 15.78497695  1303,6712.833000000001,91.226,336.5440000000001,332.853,0.0
53538.0,STARLINK-4118,PAYLOAD,2022-08-29 12:00:00,15.76976613,0.0002984,53.2175,106.7024,351.1461,67.1392,-0.0081319,-0.0119598,0.0,0 STARLINK-4118,1 53538U 22101M   22241.50001157 -.01195980  00000-0 -81319-2 0  9999,2 53538  53.2175 106.7024 0002984 351.1461  67.1392 15.76976613  1553,6717.149,91.314,341.019,337.01,0.0
53538.0,STARLINK-4118,PAYLOAD,2022-08-29 14:00:01,15.76761668,0.0003036,53.2176,106.2875,2.6721,168.9429,-0.0082221,-0.01197496,0.0,0 STARLINK-4118,1 53538U 22101M   22241.58334491 -.01197496  00000-0 -82221-2 0  9994,2 53538  53.2176 106.2875 0003036   2.6721 168.9429 15.76761668  1305,6717.76,91.326,341.664,337.585,0.0
53538.0,STARLINK-4118,PAYLOAD,2022-08-29 22:00:00,15.75880944,0.0003421,53.2175,104.6325,328.4885,295.8029,-0.0083828,-0.01176727,0.0,0 STARLINK-4118,1 53538U 22101M   22241.91667824 -.01176727  00000-0 -83828-2 0  9998,2 53538  53.2175 104.6325 0003421 328.4885 295.8029 15.75880944  1308,6720.263000000001,91.377,344.427,339.829,0.0
53538.0,STARLINK-4118,PAYLOAD,2022-08-30 06:00:00,15.75021892,5.88e-05,53.2172,102.9768,21.1218,334.7973,-0.0088238999999999,-0.01189192,0.0,0 STARLINK-4118,1 53538U 22101M   22242.25001157 -.01189192  00000-0 -88239-2 0  9998,2 53538  53.2172 102.9768 0000588  21.1218 334.7973 15.75021892  1664,6722.706,91.427,344.966,344.176,0.0
53538.0,STARLINK-4118,PAYLOAD,2022-08-30 14:00:01,15.74073844,0.0001315999999999,53.2169,101.3231,43.3322,43.1725,-0.0068857,-0.00902572,0.0,0 STARLINK-4118,1 53538U 22101M   22242.58334491 -.00902572  00000-0 -68857-2 0  9992,2 53538  53.2169 101.3231 0001316  43.3322  43.1725 15.74073844  1300,6725.405,91.482,348.155,346.385,0.0
53538.0,STARLINK-4118,PAYLOAD,2022-08-30 20:00:01,15.73431018,0.0001381,53.2174,100.0859,42.0077,21.7655,-0.0024074,-0.00328863,0.0,0 STARLINK-4118,1 53538U 22101M   22242.83334491 -.00328863  00000-0 -24074-2 0  9998,2 53538  53.2174 100.0859 0001381  42.0077  21.7655 15.73431018  1767,6727.236999999999,91.52,350.031,348.173,0.0
53538.0,STARLINK-4118,PAYLOAD,2022-08-30 22:00:00,15.73263814,0.0001426999999999,53.2164,99.6758,65.6516,110.3923,-9.0729e-05,-0.00013369,0.0,0 STARLINK-4118,1 53538U 22101M   22242.91667824 -.00013369  00000-0 -90729-4 0  9990,2 53538  53.2164  99.6758 0001427  65.6516 110.3923 15.73263814  1307,6727.7130000000025,91.529,350.538,348.61800000000005,0.0
53538.0,STARLINK-4118,PAYLOAD,2022-08-31 12:00:00,15.7324955,0.0001135,53.2156,96.7882,67.2938,174.513,5.9495e-05,7.755e-05,0.0,0 STARLINK-4118,1 53538U 22101M   22243.50001157  .00007755  00000-0  59495-4 0  9992,2 53538  53.2156  96.7882 0001135  67.2938 174.5130 15.73249550  1860,6727.754,91.53,350.3830000000001,348.855,0.0
53538.0,STARLINK-4118,PAYLOAD,2022-08-31 14:00:01,15.73270979,0.0001207,53.2158,96.3758,68.2834,285.7598,-0.00041951,-0.0005926,0.0,0 STARLINK-4118,1 53538U 22101M   22243.58334491 -.00059260  00000-0 -41951-3 0  9997,2 53538  53.2158  96.3758 0001207  68.2834 285.7598 15.73270979  1307,6727.693,91.529,350.37,348.746,0.0
53538.0,STARLINK-4118,PAYLOAD,2022-08-31 20:00:01,15.73247562,0.0001338,53.2154,95.1402,61.4629,269.329,-0.00077539,-0.00108271,0.0,0 STARLINK-4118,1 53538U 22101M   22243.83334491 -.00108271  00000-0 -77539-3 0  9993,2 53538  53.2154  95.1402 0001338  61.4629 269.3290 15.73247562  1914,6727.76,91.53,350.525,348.724,0.0
53538.0,STARLINK-4118,PAYLOAD,2022-08-31 22:00:00,15.73237042,0.0001385999999999,53.2155,94.7283,59.2471,23.7912,-0.00072546,-0.00101377,0.0,0 STARLINK-4118,1 53538U 22101M   22243.91667824 -.00101377  00000-0 -72546-3 0  9994,2 53538  53.2155  94.7283 0001386  59.2471  23.7912 15.73237042  1308,6727.79,91.531,350.587,348.722,0.0
53538.0,STARLINK-4118,PAYLOAD,2022-09-01 12:00:00,15.73112674,0.0001264,53.2152,91.8394,72.0661,76.5602,0.00056553,0.00079202,0.0,0 STARLINK-4118,1 53538U 22101M   22244.50001157  .00079202  00000-0  56553-3 0  9990,2 53538  53.2152  91.8394 0001264  72.0661  76.5602 15.73112674  2020,6728.144,91.538,350.86,349.159,0.0
53538.0,STARLINK-4118,PAYLOAD,2022-09-01 14:00:01,15.73133974,0.000128,53.2155,91.4272,72.7161,188.1776,0.00037472,0.00052148,0.0,0 STARLINK-4118,1 53538U 22101M   22244.58335648  .00052148  00000-0  37472-3 0  9992,2 53538  53.2155  91.4272 0001280  72.7161 188.1776 15.73133974  1302,6728.083000000001,91.537,350.81,349.087,0.0
53538.0,STARLINK-4118,PAYLOAD,2022-09-01 20:00:01,15.73160424,0.0001379,53.2155,90.1919,63.008,174.5363,0.00012149,0.00016435,0.0,0 STARLINK-4118,1 53538U 22101M   22244.83335648  .00016435  00000-0  12149-3 0  9993,2 53538  53.2155  90.1919 0001379  63.0080 174.5363 15.73160424  2074,6728.0080000000025,91.535,350.801,348.945,0.0
